0 COSMOS 1217 DEB
1 26678U 80085E   13280.18836375 -.00000002  00000-0  00000+0 0  9784
2 26678 066.3794 310.7598 6548565 070.3081 346.2762 02.11843473108188
0 COSMOS 1217 DEB
1 26678U 80085E   13281.13245370 -.00000002  00000-0  00000+0 0  9790
2 26678 066.3786 310.6664 6548599 070.2840 346.2850 02.11843845108205
0 COSMOS 1217 DEB
1 26678U 80085E   13283.49267658 -.00000019  00000-0  00000+0 0  9804
2 26678 066.3759 310.4353 6548589 070.2203 346.2966 02.11842643108258
0 COSMOS 1217 DEB
1 26678U 80085E   13283.49269580 -.00000081  00000-0  10000-3 0  9815
2 26678 066.3737 310.4055 6551506 070.2621 346.3018 02.11844967108250
0 COSMOS 1217 DEB
1 26678U 80085E   13291.51749189 -.00000061  00000-0  00000+0 0  9829
2 26678 066.3699 309.6533 6548553 070.0138 346.3663 02.11843358108436
0 COSMOS 1217 DEB
1 26678U 80085E   13291.51752294 -.00000061  00000-0  00000+0 0  9819
2 26678 066.3778 309.7155 6549053 070.1148 346.3743 02.11844069108432
